CCSDS_OMM_VERS = 2.0
CREATION_DATE  = 
ORIGINATOR     = 

OBJECT_NAME    = STARLINK-36434
OBJECT_ID      = 2026-002T
CENTER_NAME    = EARTH
REF_FRAME      = TEME
TIME_SYSTEM    = UTC
MEAN_ELEMENT_THEORY = SGP/SGP4

EPOCH          = 2026-01-27T06:00:00.999648
MEAN_MOTION    = 15.59173288
ECCENTRICITY   = .00014147
INCLINATION    = 42.9994
RA_OF_ASC_NODE = 201.4264
ARG_OF_PERICENTER = 271.4979
MEAN_ANOMALY   = 199.6160

EPHEMERIS_TYPE = 0
CLASSIFICATION_TYPE = U
NORAD_CAT_ID   = 67322
ELEMENT_SET_NO = 999
REV_AT_EPOCH   = 475
BSTAR          = -.2947204E-1
MEAN_MOTION_DOT = -.211159E-1
MEAN_MOTION_DDOT = 0

CCSDS_OMM_VERS = 2.0
CREATION_DATE  = 
ORIGINATOR     = 

OBJECT_NAME    = STARLINK-36497
OBJECT_ID      = 2026-002U
CENTER_NAME    = EARTH
REF_FRAME      = TEME
TIME_SYSTEM    = UTC
MEAN_ELEMENT_THEORY = SGP/SGP4

EPOCH          = 2026-01-27T06:00:00.999648
MEAN_MOTION    = 15.59175899
ECCENTRICITY   = .00015709
INCLINATION    = 42.9995
RA_OF_ASC_NODE = 201.4166
ARG_OF_PERICENTER = 276.5158
MEAN_ANOMALY   = 198.4262

EPHEMERIS_TYPE = 0
CLASSIFICATION_TYPE = U
NORAD_CAT_ID   = 67323
ELEMENT_SET_NO = 999
REV_AT_EPOCH   = 481
BSTAR          = -.29468572E-1
MEAN_MOTION_DOT = -.2111667E-1
MEAN_MOTION_DDOT = 0

CCSDS_OMM_VERS = 2.0
CREATION_DATE  = 
ORIGINATOR     = 

OBJECT_NAME    = STARLINK-36471
OBJECT_ID      = 2026-002V
CENTER_NAME    = EARTH
REF_FRAME      = TEME
TIME_SYSTEM    = UTC
MEAN_ELEMENT_THEORY = SGP/SGP4

EPOCH          = 2026-01-27T06:00:00.999648
MEAN_MOTION    = 15.59169428
ECCENTRICITY   = .00016542
INCLINATION    = 42.9994
RA_OF_ASC_NODE = 201.4074
ARG_OF_PERICENTER = 271.5461
MEAN_ANOMALY   = 207.2337

EPHEMERIS_TYPE = 0
CLASSIFICATION_TYPE = U
NORAD_CAT_ID   = 67324
ELEMENT_SET_NO = 999
REV_AT_EPOCH   = 475
BSTAR          = -.29362861E-1
MEAN_MOTION_DOT = -.2104514E-1
MEAN_MOTION_DDOT = 0

CCSDS_OMM_VERS = 2.0
CREATION_DATE  = 
ORIGINATOR     = 

OBJECT_NAME    = STARLINK-36473
OBJECT_ID      = 2026-002W
CENTER_NAME    = EARTH
REF_FRAME      = TEME
TIME_SYSTEM    = UTC
MEAN_ELEMENT_THEORY = SGP/SGP4

EPOCH          = 2026-01-27T06:00:00.999648
MEAN_MOTION    = 15.59175640
ECCENTRICITY   = .00014631
INCLINATION    = 42.9993
RA_OF_ASC_NODE = 201.4116
ARG_OF_PERICENTER = 273.1300
MEAN_ANOMALY   = 203.7328

EPHEMERIS_TYPE = 0
CLASSIFICATION_TYPE = U
NORAD_CAT_ID   = 67325
ELEMENT_SET_NO = 999
REV_AT_EPOCH   = 491
BSTAR          = -.29507037E-1
MEAN_MOTION_DOT = -.2114026E-1
MEAN_MOTION_DDOT = 0

CCSDS_OMM_VERS = 2.0
CREATION_DATE  = 
ORIGINATOR     = 

OBJECT_NAME    = STARLINK-36430
OBJECT_ID      = 2026-002X
CENTER_NAME    = EARTH
REF_FRAME      = TEME
TIME_SYSTEM    = UTC
MEAN_ELEMENT_THEORY = SGP/SGP4

EPOCH          = 2026-01-27T06:00:00.999648
MEAN_MOTION    = 15.59174893
ECCENTRICITY   = .00014484
INCLINATION    = 42.9993
RA_OF_ASC_NODE = 201.3968
ARG_OF_PERICENTER = 273.6932
MEAN_ANOMALY   = 208.9194

EPHEMERIS_TYPE = 0
CLASSIFICATION_TYPE = U
NORAD_CAT_ID   = 67326
ELEMENT_SET_NO = 999
REV_AT_EPOCH   = 491
BSTAR          = -.29466488E-1
MEAN_MOTION_DOT = -.2111375E-1
MEAN_MOTION_DDOT = 0

CCSDS_OMM_VERS = 2.0
CREATION_DATE  = 
ORIGINATOR     = 

OBJECT_NAME    = STARLINK-36501
OBJECT_ID      = 2026-002Y
CENTER_NAME    = EARTH
REF_FRAME      = TEME
TIME_SYSTEM    = UTC
MEAN_ELEMENT_THEORY = SGP/SGP4

EPOCH          = 2026-01-26T12:35:28.915872
MEAN_MOTION    = 15.62800160
ECCENTRICITY   = .00031859
INCLINATION    = 42.9980
RA_OF_ASC_NODE = 205.7078
ARG_OF_PERICENTER = 335.6507
MEAN_ANOMALY   = 24.4207

EPHEMERIS_TYPE = 0
CLASSIFICATION_TYPE = U
NORAD_CAT_ID   = 67327
ELEMENT_SET_NO = 999
REV_AT_EPOCH   = 460
BSTAR          = -.82014707E-2
MEAN_MOTION_DOT = -.698082E-2
MEAN_MOTION_DDOT = 0

CCSDS_OMM_VERS = 2.0
CREATION_DATE  = 
ORIGINATOR     = 

OBJECT_NAME    = STARLINK-36489
OBJECT_ID      = 2026-002Z
CENTER_NAME    = EARTH
REF_FRAME      = TEME
TIME_SYSTEM    = UTC
MEAN_ELEMENT_THEORY = SGP/SGP4

EPOCH          = 2026-01-27T06:00:00.999648
MEAN_MOTION    = 15.59173312
ECCENTRICITY   = .0001469
INCLINATION    = 42.9993
RA_OF_ASC_NODE = 201.3924
ARG_OF_PERICENTER = 273.2672
MEAN_ANOMALY   = 211.2645

EPHEMERIS_TYPE = 0
CLASSIFICATION_TYPE = U
NORAD_CAT_ID   = 67328
ELEMENT_SET_NO = 999
REV_AT_EPOCH   = 491
BSTAR          = -.2945969E-1
MEAN_MOTION_DOT = -.2110842E-1
MEAN_MOTION_DDOT = 0

CCSDS_OMM_VERS = 2.0
CREATION_DATE  = 
ORIGINATOR     = 

OBJECT_NAME    = STARLINK-36496
OBJECT_ID      = 2026-002AA
CENTER_NAME    = EARTH
REF_FRAME      = TEME
TIME_SYSTEM    = UTC
MEAN_ELEMENT_THEORY = SGP/SGP4

EPOCH          = 2026-01-27T06:00:00.999648
MEAN_MOTION    = 15.59176035
ECCENTRICITY   = .00015254
INCLINATION    = 42.9994
RA_OF_ASC_NODE = 201.3819
ARG_OF_PERICENTER = 275.3776
MEAN_ANOMALY   = 212.9807

EPHEMERIS_TYPE = 0
CLASSIFICATION_TYPE = U
NORAD_CAT_ID   = 67329
ELEMENT_SET_NO = 999
REV_AT_EPOCH   = 473
BSTAR          = -.29426234E-1
MEAN_MOTION_DOT = -.2108943E-1
MEAN_MOTION_DDOT = 0

CCSDS_OMM_VERS = 2.0
CREATION_DATE  = 
ORIGINATOR     = 

OBJECT_NAME    = STARLINK-36483
OBJECT_ID      = 2026-002AB
CENTER_NAME    = EARTH
REF_FRAME      = TEME
TIME_SYSTEM    = UTC
MEAN_ELEMENT_THEORY = SGP/SGP4

EPOCH          = 2026-01-27T06:00:00.999648
MEAN_MOTION    = 15.59169693
ECCENTRICITY   = .00014676
INCLINATION    = 42.9994
RA_OF_ASC_NODE = 201.3716
ARG_OF_PERICENTER = 276.1224
MEAN_ANOMALY   = 216.0786

EPHEMERIS_TYPE = 0
CLASSIFICATION_TYPE = U
NORAD_CAT_ID   = 67330
ELEMENT_SET_NO = 999
REV_AT_EPOCH   = 491
BSTAR          = -.29384691E-1
MEAN_MOTION_DOT = -.2105794E-1
MEAN_MOTION_DDOT = 0

CCSDS_OMM_VERS = 2.0
CREATION_DATE  = 
ORIGINATOR     = 

OBJECT_NAME    = STARLINK-36494
OBJECT_ID      = 2026-002AC
CENTER_NAME    = EARTH
REF_FRAME      = TEME
TIME_SYSTEM    = UTC
MEAN_ELEMENT_THEORY = SGP/SGP4

EPOCH          = 2026-01-27T06:00:00.999648
MEAN_MOTION    = 15.59176626
ECCENTRICITY   = .00015899
INCLINATION    = 42.9991
RA_OF_ASC_NODE = 201.3865
ARG_OF_PERICENTER = 273.9672
MEAN_ANOMALY   = 212.4763

EPHEMERIS_TYPE = 0
CLASSIFICATION_TYPE = U
NORAD_CAT_ID   = 67331
ELEMENT_SET_NO = 999
REV_AT_EPOCH   = 491
BSTAR          = -.29477687E-1
MEAN_MOTION_DOT = -.2112315E-1
MEAN_MOTION_DDOT = 0

CCSDS_OMM_VERS = 2.0
CREATION_DATE  = 
ORIGINATOR     = 

OBJECT_NAME    = STARLINK-36492
OBJECT_ID      = 2026-002AD
CENTER_NAME    = EARTH
REF_FRAME      = TEME
TIME_SYSTEM    = UTC
MEAN_ELEMENT_THEORY = SGP/SGP4

EPOCH          = 2026-01-27T06:00:00.999648
MEAN_MOTION    = 15.59174678
ECCENTRICITY   = .00013696
INCLINATION    = 42.9992
RA_OF_ASC_NODE = 201.3772
ARG_OF_PERICENTER = 273.9045
MEAN_ANOMALY   = 216.3755

EPHEMERIS_TYPE = 0
CLASSIFICATION_TYPE = U
NORAD_CAT_ID   = 67332
ELEMENT_SET_NO = 999
REV_AT_EPOCH   = 491
BSTAR          = -.29439426E-1
MEAN_MOTION_DOT = -.2109579E-1
MEAN_MOTION_DDOT = 0

CCSDS_OMM_VERS = 2.0
CREATION_DATE  = 
ORIGINATOR     = 

OBJECT_NAME    = STARLINK-36427
OBJECT_ID      = 2026-002AE
CENTER_NAME    = EARTH
REF_FRAME      = TEME
TIME_SYSTEM    = UTC
MEAN_ELEMENT_THEORY = SGP/SGP4

EPOCH          = 2026-01-27T06:00:00.999648
MEAN_MOTION    = 15.50276344
ECCENTRICITY   = .00016773
INCLINATION    = 42.9995
RA_OF_ASC_NODE = 201.2514
ARG_OF_PERICENTER = 272.4365
MEAN_ANOMALY   = 262.0036

EPHEMERIS_TYPE = 0
CLASSIFICATION_TYPE = U
NORAD_CAT_ID   = 67333
ELEMENT_SET_NO = 999
REV_AT_EPOCH   = 481
BSTAR          = -.28456948E-1
MEAN_MOTION_DOT = -.1496244E-1
MEAN_MOTION_DDOT = 0

