STARLINK-36434          
1 67322U 26002T   26027.25001157 -.02111590  00000+0 -29472-1 0  9993
2 67322  42.9994 201.4264 0001414 271.4979 199.6160 15.59173288  4754
STARLINK-36497          
1 67323U 26002U   26027.25001157 -.02111667  00000+0 -29469-1 0  9995
2 67323  42.9995 201.4166 0001570 276.5158 198.4262 15.59175899  4812
STARLINK-36471          
1 67324U 26002V   26027.25001157 -.02104514  00000+0 -29363-1 0  9992
2 67324  42.9994 201.4074 0001654 271.5461 207.2337 15.59169428  4751
STARLINK-36473          
1 67325U 26002W   26027.25001157 -.02114026  00000+0 -29507-1 0  9992
2 67325  42.9993 201.4116 0001463 273.1300 203.7328 15.59175640  4918
STARLINK-36430          
1 67326U 26002X   26027.25001157 -.02111375  00000+0 -29466-1 0  9991
2 67326  42.9993 201.3968 0001448 273.6932 208.9194 15.59174893  4919
STARLINK-36501          
1 67327U 26002Y   26026.52464023 -.00698082  00000+0 -82015-2 0  9999
2 67327  42.9980 205.7078 0003185 335.6507  24.4207 15.62800160  4602
STARLINK-36489          
1 67328U 26002Z   26027.25001157 -.02110842  00000+0 -29460-1 0  9995
2 67328  42.9993 201.3924 0001469 273.2672 211.2645 15.59173312  4916
STARLINK-36496          
1 67329U 26002AA  26027.25001157 -.02108943  00000+0 -29426-1 0  9997
2 67329  42.9994 201.3819 0001525 275.3776 212.9807 15.59176035  4735
STARLINK-36483          
1 67330U 26002AB  26027.25001157 -.02105794  00000+0 -29385-1 0  9994
2 67330  42.9994 201.3716 0001467 276.1224 216.0786 15.59169693  4918
STARLINK-36494          
1 67331U 26002AC  26027.25001157 -.02112315  00000+0 -29478-1 0  9995
2 67331  42.9991 201.3865 0001589 273.9672 212.4763 15.59176626  4917
STARLINK-36492          
1 67332U 26002AD  26027.25001157 -.02109579  00000+0 -29439-1 0  9991
2 67332  42.9992 201.3772 0001369 273.9045 216.3755 15.59174678  4915
STARLINK-36427          
1 67333U 26002AE  26027.25001157 -.01496244  00000+0 -28457-1 0  9998
2 67333  42.9995 201.2514 0001677 272.4365 262.0036 15.50276344  4816
